[{"OBJECT_NAME":"WILDFIRE 2","OBJECT_ID":"2023-133L","EPOCH":"2026-03-09T19:22:31.583136","MEAN_MOTION":13.8518725,"ECCENTRICITY":0.00045046,"INCLINATION":80.993,"RA_OF_ASC_NODE":102.8595,"ARG_OF_PERICENTER":298.2911,"MEAN_ANOMALY":61.779,"EPHEMERIS_TYPE":0,"CLASSIFICATION_TYPE":"U","NORAD_CAT_ID":57767,"ELEMENT_SET_NO":999,"REV_AT_EPOCH":12724,"BSTAR":6.4756906e-5,"MEAN_MOTION_DOT":8.4e-7,"MEAN_MOTION_DDOT":0},{"OBJECT_NAME":"METEOR 2-12","OBJECT_ID":"1985-013A","EPOCH":"2026-03-09T22:49:51.208032","MEAN_MOTION":13.85858491,"ECCENTRICITY":0.00151459,"INCLINATION":82.5297,"RA_OF_ASC_NODE":50.9977,"ARG_OF_PERICENTER":194.0128,"MEAN_ANOMALY":166.0615,"EPHEMERIS_TYPE":0,"CLASSIFICATION_TYPE":"U","NORAD_CAT_ID":15516,"ELEMENT_SET_NO":999,"REV_AT_EPOCH":7806,"BSTAR":4.5447025e-5,"MEAN_MOTION_DOT":6.7e-7,"MEAN_MOTION_DDOT":0}]
